OBJECT_NAME,OBJECT_ID,EPOCH,MEAN_MOTION,ECCENTRICITY,INCLINATION,RA_OF_ASC_NODE,ARG_OF_PERICENTER,MEAN_ANOMALY,EPHEMERIS_TYPE,CLASSIFICATION_TYPE,NORAD_CAT_ID,ELEMENT_SET_NO,REV_AT_EPOCH,BSTAR,MEAN_MOTION_DOT,MEAN_MOTION_DDOT
STARLINK-11556 [DTC],2025-019K,2026-06-11T17:35:44.477088,15.71069348,.00032005,42.9996,98.9113,292.6796,67.3733,0,U,62838,999,7867,.11967302E-2,.157589E-2,0
STARLINK-11524 [DTC],2025-019L,2026-06-11T12:29:21.067872,15.70922070,.0002596,42.9983,100.7781,280.5733,79.4842,0,U,62839,999,7863,.18258E-2,.241604E-2,0
STARLINK-11551 [DTC],2025-019M,2026-06-11T22:24:22.861152,15.70931345,.00018205,43.0006,97.8412,264.5150,95.5510,0,U,62840,999,7870,.11912645E-2,.155906E-2,0
STARLINK-11531 [DTC],2025-019N,2026-06-10T20:50:48.897600,15.70847094,.00014857,42.9986,104.4826,250.7071,109.3637,0,U,62841,999,7853,.11218875E-2,.146105E-2,0
STARLINK-32755,2025-019P,2026-06-11T00:06:41.228640,15.27595188,.00001511,43.0077,274.9483,99.7380,260.3489,0,U,62842,999,7660,.6063934E-3,.16469E-3,0
STARLINK-32797,2025-019Q,2026-06-11T14:20:06.118656,15.27584641,.0002553,43.0016,278.5784,277.5742,82.4820,0,U,62843,999,7661,.70607E-3,.19222E-3,0
STARLINK-32794,2025-019R,2026-06-10T15:24:45.479520,15.27597457,.00005817,43.0117,284.3031,341.6154,18.4677,0,U,62844,999,7646,.7700399E-3,.20999E-3,0
STARLINK-32807,2025-019S,2026-06-11T00:58:17.015808,15.27588900,.00011194,43.0032,274.3450,254.8264,105.2464,0,U,62845,999,7661,.55550578E-3,.15059E-3,0
STARLINK-32804,2025-019T,2026-06-11T19:13:40.636128,15.27591092,.00004393,42.9945,277.5279,120.1101,239.9794,0,U,62846,999,7664,.88389894E-3,.24149E-3,0
STARLINK-32799,2025-019U,2026-06-11T14:08:59.990208,15.27583404,.0002491,43.0036,278.5178,273.2493,86.8073,0,U,62847,999,7661,.70295E-3,.19134E-3,0
STARLINK-32781,2025-019V,2026-06-11T19:11:49.040160,15.27605429,.00025009,43.0011,277.5202,283.2041,76.8531,0,U,62848,999,7664,.89766586E-3,.24542E-3,0
STARLINK-32809,2025-019W,2026-06-11T01:20:56.658048,15.27602792,.00013885,43.0047,281.3939,276.8261,83.2432,0,U,62849,999,7653,.92510325E-3,.253E-3,0
STARLINK-32868,2025-022A,2026-06-11T22:19:07.621248,15.34401024,.00016105,53.1596,50.1173,136.2499,223.8631,0,U,62854,999,7716,.92022692E-3,.30844E-3,0
STARLINK-32867,2025-022B,2026-06-11T22:23:53.689920,15.30206877,.00010886,53.1600,51.5388,91.7585,268.3541,0,U,62855,999,7633,.87743013E-3,.25723E-3,0
STARLINK-32860,2025-022C,2026-06-11T22:28:53.876352,15.34407861,.00017351,53.1602,51.5774,146.7912,213.3200,0,U,62856,999,7633,.90305235E-3,.30266E-3,0
STARLINK-32873,2025-022D,2026-06-11T22:37:59.100096,15.34373310,.00013245,53.1614,51.6157,105.4394,254.6755,0,U,62857,999,7633,.72086022E-3,.24037E-3,0
STARLINK-32866,2025-022E,2026-06-11T22:31:15.173184,15.34401706,.00012822,53.1603,50.1670,92.1082,268.0068,0,U,62858,999,7635,.94210024E-3,.3159E-3,0
STARLINK-32869,2025-022F,2026-06-11T22:46:42.071520,15.30158186,.00001493,53.1613,51.6334,286.6773,73.4211,0,U,62859,999,7633,.80099884E-3,.23409E-3,0
STARLINK-32831,2025-022G,2026-06-11T22:13:45.018336,15.34395508,.00012858,53.1606,51.5092,84.4870,275.6279,0,U,62860,999,7632,.72302909E-3,.24128E-3,0
STARLINK-32859,2025-022H,2026-06-11T23:17:22.496064,15.34410726,.00008918,53.1601,51.7781,100.3357,259.7746,0,U,62861,999,7633,.80828047E-3,.27041E-3,0
STARLINK-32864,2025-022J,2026-06-11T22:31:55.860672,15.34412580,.00014607,53.1612,51.5720,127.4721,232.6415,0,U,62862,999,7633,.1017007E-2,.34155E-3,0
STARLINK-32808,2025-022K,2026-06-11T22:00:01.999584,15.34399949,.00011606,53.1606,51.9394,84.0357,25.7125,0,U,62863,999,592,-.46408113E-3,-.16023E-3,0
STARLINK-32862,2025-022L,2026-06-11T22:47:04.946784,15.34393739,.00018669,53.1618,51.6548,94.6560,265.4656,0,U,62864,999,7633,.72232126E-3,.24102E-3,0
STARLINK-32841,2025-022M,2026-06-11T22:44:03.089472,15.34396325,.00009165,53.1613,51.6407,70.7926,289.3175,0,U,62865,999,7632,.10136971E-2,.34024E-3,0
STARLINK-32695,2025-022N,2026-06-11T22:25:11.843040,15.34390677,.00014398,53.1606,50.1412,89.5262,270.5906,0,U,62866,999,7635,.98668613E-3,.33098E-3,0
STARLINK-32846,2025-022P,2026-06-11T22:00:01.999584,15.33584249,.00012809,53.1601,51.8039,92.7269,78.3916,0,U,62867,999,571,-.22497462E-2,-.73723E-3,0
STARLINK-32822,2025-022Q,2026-06-11T22:25:51.454848,15.34430234,.0001496,53.1607,51.5599,137.1495,222.9624,0,U,62868,999,7633,.10990331E-2,.36975E-3,0
STARLINK-32813,2025-022R,2026-06-11T22:56:09.900960,15.34399968,.00012291,53.1610,51.6918,107.1351,252.9787,0,U,62869,999,7633,.42826181E-3,.14121E-3,0
STARLINK-32861,2025-022S,2026-06-11T22:00:01.999584,15.34389638,.00012876,53.1593,50.2493,85.4563,166.4229,0,U,62870,999,582,-.16750555E-3,-.6029E-4,0
STARLINK-32814,2025-022T,2026-06-11T22:16:46.936128,15.34413308,.00013577,53.1597,51.5252,132.6208,227.4909,0,U,62871,999,7633,.10905237E-2,.36665E-3,0
