STARLINK-11556 [DTC]    
1 62838U 25019K   26162.73315367  .00157589  00000+0  11967-2 0  9996
2 62838  42.9996  98.9113 0003200 292.6796  67.3733 15.71069348 78676
STARLINK-11524 [DTC]    
1 62839U 25019L   26162.52038273  .00241604  00000+0  18258-2 0  9994
2 62839  42.9983 100.7781 0002596 280.5733  79.4842 15.70922070 78630
STARLINK-11551 [DTC]    
1 62840U 25019M   26162.93359793  .00155906  00000+0  11913-2 0  9994
2 62840  43.0006  97.8412 0001820 264.5150  95.5510 15.70931345 78705
STARLINK-11531 [DTC]    
1 62841U 25019N   26161.86862150  .00146105  00000+0  11219-2 0  9992
2 62841  42.9986 104.4826 0001485 250.7071 109.3637 15.70847094 78533
STARLINK-32755          
1 62842U 25019P   26162.00464385  .00016469  00000+0  60639-3 0  9998
2 62842  43.0077 274.9483 0000151  99.7380 260.3489 15.27595188 76607
STARLINK-32797          
1 62843U 25019Q   26162.59729304  .00019222  00000+0  70607-3 0  9994
2 62843  43.0016 278.5784 0002553 277.5742  82.4820 15.27584641 76616
STARLINK-32794          
1 62844U 25019R   26161.64219305  .00020999  00000+0  77004-3 0  9996
2 62844  43.0117 284.3031 0000581 341.6154  18.4677 15.27597457 76469
STARLINK-32807          
1 62845U 25019S   26162.04047472  .00015059  00000+0  55551-3 0  9990
2 62845  43.0032 274.3450 0001119 254.8264 105.2464 15.27588900 76614
STARLINK-32804          
1 62846U 25019T   26162.80116477  .00024149  00000+0  88390-3 0  9994
2 62846  42.9945 277.5279 0000439 120.1101 239.9794 15.27591092 76649
STARLINK-32799          
1 62847U 25019U   26162.58958322  .00019134  00000+0  70295-3 0  9996
2 62847  43.0036 278.5178 0002491 273.2493  86.8073 15.27583404 76610
STARLINK-32781          
1 62848U 25019V   26162.79987315  .00024542  00000+0  89767-3 0  9997
2 62848  43.0011 277.5202 0002500 283.2041  76.8531 15.27605429 76645
STARLINK-32809          
1 62849U 25019W   26162.05621132  .00025300  00000+0  92510-3 0  9992
2 62849  43.0047 281.3939 0001388 276.8261  83.2432 15.27602792 76530
STARLINK-32868          
1 62854U 25022A   26162.92994932  .00030844  00000+0  92023-3 0  9997
2 62854  53.1596  50.1173 0001610 136.2499 223.8631 15.34401024 77165
STARLINK-32867          
1 62855U 25022B   26162.93326030  .00025723  00000+0  87743-3 0  9990
2 62855  53.1600  51.5388 0001088  91.7585 268.3541 15.30206877 76332
STARLINK-32860          
1 62856U 25022C   26162.93673468  .00030266  00000+0  90305-3 0  9997
2 62856  53.1602  51.5774 0001735 146.7912 213.3200 15.34407861 76330
STARLINK-32873          
1 62857U 25022D   26162.94304514  .00024037  00000+0  72086-3 0  9997
2 62857  53.1614  51.6157 0001324 105.4394 254.6755 15.34373310 76334
STARLINK-32866          
1 62858U 25022E   26162.93837006  .00031590  00000+0  94210-3 0  9999
2 62858  53.1603  50.1670 0001282  92.1082 268.0068 15.34401706 76355
STARLINK-32869          
1 62859U 25022F   26162.94909805  .00023409  00000+0  80100-3 0  9991
2 62859  53.1613  51.6334 0000149 286.6773  73.4211 15.30158186 76331
STARLINK-32831          
1 62860U 25022G   26162.92621549  .00024128  00000+0  72303-3 0  9992
2 62860  53.1606  51.5092 0001285  84.4870 275.6279 15.34395508 76323
STARLINK-32859          
1 62861U 25022H   26162.97039926  .00027041  00000+0  80828-3 0  9998
2 62861  53.1601  51.7781 0000891 100.3357 259.7746 15.34410726 76339
STARLINK-32864          
1 62862U 25022J   26162.93884098  .00034155  00000+0  10170-2 0  9999
2 62862  53.1612  51.5720 0001460 127.4721 232.6415 15.34412580 76334
STARLINK-32808          
1 62863U 25022K   26162.91668981 -.00016023  00000+0 -46408-3 0  9999
2 62863  53.1606  51.9394 0001160  84.0357  25.7125 15.34399949  5928
STARLINK-32862          
1 62864U 25022L   26162.94936281  .00024102  00000+0  72232-3 0  9993
2 62864  53.1618  51.6548 0001866  94.6560 265.4656 15.34393739 76332
STARLINK-32841          
1 62865U 25022M   26162.94725798  .00034024  00000+0  10137-2 0  9992
2 62865  53.1613  51.6407 0000916  70.7926 289.3175 15.34396325 76322
STARLINK-32695          
1 62866U 25022N   26162.93416485  .00033098  00000+0  98669-3 0  9999
2 62866  53.1606  50.1412 0001439  89.5262 270.5906 15.34390677 76358
STARLINK-32846          
1 62867U 25022P   26162.91668981 -.00073723  00000+0 -22497-2 0  9994
2 62867  53.1601  51.8039 0001280  92.7269  78.3916 15.33584249  5710
STARLINK-32822          
1 62868U 25022Q   26162.93462332  .00036975  00000+0  10990-2 0  9990
2 62868  53.1607  51.5599 0001496 137.1495 222.9624 15.34430234 76333
STARLINK-32813          
1 62869U 25022R   26162.95567015  .00014121  00000+0  42826-3 0  9990
2 62869  53.1610  51.6918 0001229 107.1351 252.9787 15.34399968 76337
STARLINK-32861          
1 62870U 25022S   26162.91668981 -.00006029  00000+0 -16751-3 0  9990
2 62870  53.1593  50.2493 0001287  85.4563 166.4229 15.34389638  5828
STARLINK-32814          
1 62871U 25022T   26162.92832102  .00036665  00000+0  10905-2 0  9991
2 62871  53.1597  51.5252 0001357 132.6208 227.4909 15.34413308 76338
